1 27424U 02022A   11265.39125993  .00000708  00000-0  16715-3 0   710
2 27424 098.2022 204.6291 0001424 087.8333 272.3016 14.57118928499224